{"type": "FeatureCollection", "features": [ {"type": "Feature", "properties": {"norad_id": 31074, "name": "FENGYUN 1C DEB", "group": "fengyun-1c-debris", "lat": 21.79171245350272, "lon": 75.48414820897408, "alt_km": 891.20388856098, "timestamp": "2025-12-02T21:34:01.551452+00:00", "meta": {"OBJECT_NAME": "FENGYUN 1C DEB", "OBJECT_ID": "1999-025BFU", "EPOCH": "2025-12-02T05:31:54.784416", "MEAN_MOTION": 14.14072118, "ECCENTRICITY": 0.0089961, "INCLINATION": 98.9589, "RA_OF_ASC_NODE": 251.1985, "ARG_OF_PERICENTER": 295.203, "MEAN_ANOMALY": 63.9836, "EPHEMERIS_TYPE": 0, "CLASSIFICATION_TYPE": "U", "NORAD_CAT_ID": 31074, "ELEMENT_SET_NO": 999, "REV_AT_EPOCH": 95431, "BSTAR": 0.0031299, "MEAN_MOTION_DOT": 6.148e-05, "MEAN_MOTION_DDOT": 0}, "tle": {"line1": "1 31074U 99025BFU 25336.23049519  .00006148  00000+0  31299-2 0  9996", "line2": "2 31074  98.9589 251.1985 0089961 295.2030  63.9836 14.14072118954316"}}, "geometry": {"type": "Point", "coordinates": [75.48414820897408, 21.79171245350272]}}, {"type": "Feature", "properties": {"norad_id": 31078, "name": "FENGYUN 1C DEB", "group": "fengyun-1c-debris", "lat": -31.413503091715334, "lon": -148.19039373748595, "alt_km": 755.0736892889317, "timestamp": "2025-12-02T21:34:01.551462+00:00", "meta": {"OBJECT_NAME": "FENGYUN 1C DEB", "OBJECT_ID": "1999-025BFY", "EPOCH": "2025-11-30T23:34:28.078752", "MEAN_MOTION": 14.22024043, "ECCENTRICITY": 0.01167401, "INCLINATION": 98.8697, "RA_OF_ASC_NODE": 35.355, "ARG_OF_PERICENTER": 182.5527, "MEAN_ANOMALY": 303.5221, "EPHEMERIS_TYPE": 0, "CLASSIFICATION_TYPE": "U", "NORAD_CAT_ID": 31078, "ELEMENT_SET_NO": 999, "REV_AT_EPOCH": 96725, "BSTAR": 0.00067957769, "MEAN_MOTION_DOT": 1.565e-05, "MEAN_MOTION_DDOT": 0}, "tle": {"line1": "1 31078U 99025BFY 25334.98226943  .00001565  00000+0  67958-3 0  9998", "line2": "2 31078  98.8697  35.3550 0116740 182.5527 303.5221 14.22024043967255"}}, "geometry": {"type": "Point", "coordinates": [-148.19039373748595, -31.413503091715334]}}, {"type": "Feature", "properties": {"norad_id": 31081, "name": "FENGYUN 1C DEB", "group": "fengyun-1c-debris", "lat": -2.957774225429989, "lon": 173.18356270597178, "alt_km": 867.1494975217183, "timestamp": "2025-12-02T21:34:01.551472+00:00", "meta": {"OBJECT_NAME": "FENGYUN 1C DEB", "OBJECT_ID": "1999-025BGB", "EPOCH": "2025-12-02T12:53:01.547808", "MEAN_MOTION": 14.06294024, "ECCENTRICITY": 0.0047135, "INCLINATION": 98.771, "RA_OF_ASC_NODE": 353.2901, "ARG_OF_PERICENTER": 260.2673, "MEAN_ANOMALY": 252.4515, "EPHEMERIS_TYPE": 0, "CLASSIFICATION_TYPE": "U", "NORAD_CAT_ID": 31081, "ELEMENT_SET_NO": 999, "REV_AT_EPOCH": 96317, "BSTAR": 1.9372e-06, "MEAN_MOTION_DOT": -4e-07, "MEAN_MOTION_DDOT": 0}, "tle": {"line1": "1 31081U 99025BGB 25336.53682347 -.00000040  00000+0  19372-5 0  9996", "line2": "2 31081  98.7710 353.2901 0047135 260.2673 252.4515 14.06294024963178"}}, "geometry": {"type": "Point", "coordinates": [173.18356270597178, -2.957774225429989]}}, {"type": "Feature", "properties": {"norad_id": 31083, "name": "FENGYUN 1C DEB", "group": "fengyun-1c-debris", "lat": 67.70910985295119, "lon": 72.10334336082259, "alt_km": 682.510096244333, "timestamp": "2025-12-02T21:34:01.551482+00:00", "meta": {"OBJECT_NAME": "FENGYUN 1C DEB", "OBJECT_ID": "1999-025BGD", "EPOCH": "2025-12-02T00:09:50.781600", "MEAN_MOTION": 14.61552683, "ECCENTRICITY": 0.00305019, "INCLINATION": 98.6473, "RA_OF_ASC_NODE": 92.9625, "ARG_OF_PERICENTER": 339.2164, "MEAN_ANOMALY": 80.3194, "EPHEMERIS_TYPE": 0, "CLASSIFICATION_TYPE": "U", "NORAD_CAT_ID": 31083, "ELEMENT_SET_NO": 999, "REV_AT_EPOCH": 97553, "BSTAR": 0.003060401, "MEAN_MOTION_DOT": 0.00015273, "MEAN_MOTION_DDOT": 0}, "tle": {"line1": "1 31083U 99025BGD 25336.00683775  .00015273  00000+0  30604-2 0  9997", "line2": "2 31083  98.6473  92.9625 0030501 339.2164  80.3194 14.61552683975539"}}, "geometry": {"type": "Point", "coordinates": [72.10334336082259, 67.70910985295119]}}, {"type": "Feature", "properties": {"norad_id": 31085, "name": "FENGYUN 1C DEB", "group": "fengyun-1c-debris", "lat": -46.8932314242231, "lon": -12.367845872456277, "alt_km": 860.344181736652, "timestamp": "2025-12-02T21:34:01.551493+00:00", "meta": {"OBJECT_NAME": "FENGYUN 1C DEB", "OBJECT_ID": "1999-025BGF", "EPOCH": "2025-12-02T12:23:54.723840", "MEAN_MOTION": 14.30299938, "ECCENTRICITY": 0.0087693, "INCLINATION": 98.9847, "RA_OF_ASC_NODE": 176.9692, "ARG_OF_PERICENTER": 47.6154, "MEAN_ANOMALY": 14.019, "EPHEMERIS_TYPE": 0, "CLASSIFICATION_TYPE": "U", "NORAD_CAT_ID": 31085, "ELEMENT_SET_NO": 999, "REV_AT_EPOCH": 97570, "BSTAR": 0.00013607, "MEAN_MOTION_DOT": 3.21e-06, "MEAN_MOTION_DDOT": 0}, "tle": {"line1": "1 31085U 99025BGF 25336.51660560  .00000321  00000+0  13607-3 0  9995", "line2": "2 31085  98.9847 176.9692 0087693  47.6154  14.0190 14.30299938975705"}}, "geometry": {"type": "Point", "coordinates": [-12.367845872456277, -46.8932314242231]}}, {"type": "Feature", "properties": {"norad_id": 31087, "name": "FENGYUN 1C DEB", "group": "fengyun-1c-debris", "lat": 27.824108340562116, "lon": -6.789942808777557, "alt_km": 640.6345227799702, "timestamp": "2025-12-02T21:34:01.551503+00:00", "meta": {"OBJECT_NAME": "FENGYUN 1C DEB", "OBJECT_ID": "1999-025BGH", "EPOCH": "2025-12-01T13:15:15.731424", "MEAN_MOTION": 14.60131159, "ECCENTRICITY": 0.01727426, "INCLINATION": 98.104, "RA_OF_ASC_NODE": 356.2059, "ARG_OF_PERICENTER": 326.1596, "MEAN_ANOMALY": 187.3241, "EPHEMERIS_TYPE": 0, "CLASSIFICATION_TYPE": "U", "NORAD_CAT_ID": 31087, "ELEMENT_SET_NO": 999, "REV_AT_EPOCH": 98606, "BSTAR": 0.00088421007, "MEAN_MOTION_DOT": 5.196e-05, "MEAN_MOTION_DDOT": 0}, "tle": {"line1": "1 31087U 99025BGH 25335.55226541  .00005196  00000+0  88421-3 0  9998", "line2": "2 31087  98.1040 356.2059 0172742 326.1596 187.3241 14.60131159986064"}}, "geometry": {"type": "Point", "coordinates": [-6.789942808777557, 27.824108340562116]}}, {"type": "Feature", "properties": {"norad_id": 31088, "name": "FENGYUN 1C DEB", "group": "fengyun-1c-debris", "lat": -32.72325726783043, "lon": 42.43280985172081, "alt_km": 814.0097328737484, "timestamp": "2025-12-02T21:34:01.551513+00:00", "meta": {"OBJECT_NAME": "FENGYUN 1C DEB", "OBJECT_ID": "1999-025BGJ", "EPOCH": "2025-12-02T03:21:55.315584", "MEAN_MOTION": 14.28560848, "ECCENTRICITY": 0.00293131, "INCLINATION": 99.4135, "RA_OF_ASC_NODE": 35.496, "ARG_OF_PERICENTER": 92.1193, "MEAN_ANOMALY": 296.8542, "EPHEMERIS_TYPE": 0, "CLASSIFICATION_TYPE": "U", "NORAD_CAT_ID": 31088, "ELEMENT_SET_NO": 999, "REV_AT_EPOCH": 96398, "BSTAR": 0.0019068469, "MEAN_MOTION_DOT": 4.757e-05, "MEAN_MOTION_DDOT": 0}, "tle": {"line1": "1 31088U 99025BGJ 25336.14022356  .00004757  00000+0  19068-2 0  9995", "line2": "2 31088  99.4135  35.4960 0029313  92.1193 296.8542 14.28560848963980"}}, "geometry": {"type": "Point", "coordinates": [42.43280985172081, -32.72325726783043]}}, {"type": "Feature", "properties": {"norad_id": 31089, "name": "FENGYUN 1C DEB", "group": "fengyun-1c-debris", "lat": 49.273356908291134, "lon": 108.79891979046853, "alt_km": 1078.9455156721506, "timestamp": "2025-12-02T21:34:01.551522+00:00", "meta": {"OBJECT_NAME": "FENGYUN 1C DEB", "OBJECT_ID": "1999-025BGK", "EPOCH": "2025-12-01T09:07:49.380096", "MEAN_MOTION": 13.88281458, "ECCENTRICITY": 0.02056627, "INCLINATION": 98.9488, "RA_OF_ASC_NODE": 117.8872, "ARG_OF_PERICENTER": 242.4516, "MEAN_ANOMALY": 143.828, "EPHEMERIS_TYPE": 0, "CLASSIFICATION_TYPE": "U", "NORAD_CAT_ID": 31089, "ELEMENT_SET_NO": 999, "REV_AT_EPOCH": 67902, "BSTAR": 0.00085311791, "MEAN_MOTION_DOT": 1.165e-05, "MEAN_MOTION_DDOT": 0}, "tle": {"line1": "1 31089U 99025BGK 25335.38043264  .00001165  00000+0  85312-3 0  9998", "line2": "2 31089  98.9488 117.8872 0205662 242.4516 143.8280 13.88281458679026"}}, "geometry": {"type": "Point", "coordinates": [108.79891979046853, 49.273356908291134]}}, {"type": "Feature", "properties": {"norad_id": 31090, "name": "FENGYUN 1C DEB", "group": "fengyun-1c-debris", "lat": 59.63729401670041, "lon": 63.174460486714054, "alt_km": 475.92065223654754, "timestamp": "2025-12-02T21:34:01.551532+00:00", "meta": {"OBJECT_NAME": "FENGYUN 1C DEB", "OBJECT_ID": "1999-025BGL", "EPOCH": "2025-12-02T05:37:13.425024", "MEAN_MOTION": 15.31552474, "ECCENTRICITY": 0.0058318, "INCLINATION": 98.9858, "RA_OF_ASC_NODE": 78.0413, "ARG_OF_PERICENTER": 169.1931, "MEAN_ANOMALY": 191.0574, "EPHEMERIS_TYPE": 0, "CLASSIFICATION_TYPE": "U", "NORAD_CAT_ID": 31090, "ELEMENT_SET_NO": 999, "REV_AT_EPOCH": 677, "BSTAR": 0.0020871, "MEAN_MOTION_DOT": 0.00067465, "MEAN_MOTION_DDOT": 0}, "tle": {"line1": "1 31090U 99025BGL 25336.23418316  .00067465  00000+0  20871-2 0  9992", "line2": "2 31090  98.9858  78.0413 0058318 169.1931 191.0574 15.31552474  6774"}}, "geometry": {"type": "Point", "coordinates": [63.174460486714054, 59.63729401670041]}}, {"type": "Feature", "properties": {"norad_id": 31091, "name": "FENGYUN 1C DEB", "group": "fengyun-1c-debris", "lat": 65.93843885941024, "lon": -66.73866696789892, "alt_km": 984.3801889539973, "timestamp": "2025-12-02T21:34:01.551542+00:00", "meta": {"OBJECT_NAME": "FENGYUN 1C DEB", "OBJECT_ID": "1999-025BGM", "EPOCH": "2025-12-01T16:52:34.401216", "MEAN_MOTION": 13.54120325, "ECCENTRICITY": 0.02911009, "INCLINATION": 99.2236, "RA_OF_ASC_NODE": 313.4843, "ARG_OF_PERICENTER": 356.9866, "MEAN_ANOMALY": 2.9511, "EPHEMERIS_TYPE": 0, "CLASSIFICATION_TYPE": "U", "NORAD_CAT_ID": 31091, "ELEMENT_SET_NO": 999, "REV_AT_EPOCH": 61490, "BSTAR": 0.0010649547, "MEAN_MOTION_DOT": 9.06e-06, "MEAN_MOTION_DDOT": 0}, "tle": {"line1": "1 31091U 99025BGM 25335.70317594  .00000906  00000+0  10650-2 0  9991", "line2": "2 31091  99.2236 313.4843 0291100 356.9866   2.9511 13.54120325614903"}}, "geometry": {"type": "Point", "coordinates": [-66.73866696789892, 65.93843885941024]}}]}